CONNECTA IOT-1          
1 60472U 24149E   26166.19114999  .00003409  00000+0  14570-3 0  9998
2 60472  97.3762 242.5159 0000412 321.6973  38.4235 15.23526920101496
LOPEN                   
1 60473U 24149F   26166.18061465  .00012753  00000+0  32543-3 0  9999
2 60473  97.3788 249.5325 0000708 183.9235 176.2005 15.39637703101951
ROCK                    
1 60474U 24149G   26166.16718085  .00012259  00000+0  31299-3 0  9993
2 60474  97.3781 249.5347 0000923 197.4816 162.6398 15.39632671101956
CONNECTA IOT-3          
1 60475U 24149H   26166.14686327  .00003576  00000+0  15264-3 0  9991
2 60475  97.3738 242.2261 0001313 268.3351  91.7736 15.23538492101496
QUBE                    
1 60476U 24149J   26166.23314248  .00018188  00000+0  36032-3 0  9993
2 60476  97.3784 252.6286 0001770 200.4314 159.6865 15.47114435102168
WREN-1                  
1 60478U 24149L   26166.18693254  .00016736  00000+0  40100-3 0  9994
2 60478  97.3769 250.2782 0003139 258.4141 101.6754 15.41487839102013
TOMORROW-S1             
1 60479U 24149M   26166.17779393  .00006915  00000+0  22149-3 0  9994
2 60479  97.3752 246.6559 0001324 223.1234 136.9905 15.32696454101780
FLOCK 4BE-18            
1 60480U 24149N   26166.19876038  .00014338  00000+0  34039-3 0  9991
2 60480  97.3735 249.9071 0002718 244.6714 115.4251 15.41801834102009
FLOCK 4BE-7             
1 60481U 24149P   26166.13929458  .00019485  00000+0  48598-3 0  9994
2 60481  97.3766 249.1903 0001880 245.2281 114.8769 15.40240325101934
TOMORROW-S2             
1 60485U 24149T   26166.14306213  .00007344  00000+0  23485-3 0  9996
2 60485  97.3824 247.1083 0001268 277.5446  82.5652 15.32725636101779
FLOCK 4BE-36            
1 60486U 24149U   26166.17135271  .00013816  00000+0  31877-3 0  9999
2 60486  97.3751 250.5752 0002296 262.9193  97.1794 15.42671784102044
FLOCK 4BE-25            
1 60487U 24149V   26166.13698398  .00012123  00000+0  31812-3 0  9999
2 60487  97.3807 249.2730 0001133 228.8847 131.2301 15.38792703101924
FLOCK 4BE-31            
1 60488U 24149W   26166.13927472  .00019880  00000+0  43722-3 0  9998
2 60488  97.3805 251.3948 0001251 256.3639 103.7470 15.44024342102065
FLOCK 4BE-20            
1 60489U 24149X   26166.16446293  .00011217  00000+0  30206-3 0  9998
2 60489  97.3702 248.1850 0002405 259.3445 100.7529 15.38010544101904
FLOCK 4BE-23            
1 60490U 24149Y   26166.15419833  .00010774  00000+0  29386-3 0  9993
2 60490  97.3788 248.5500 0001956 270.8313  89.2708 15.37626499101886
FLOCK 4BE-15            
1 60491U 24149Z   26166.16203307  .00073387  00000+0  92339-3 0  9999
2 60491  97.3693 251.4664 0002857 242.6724 117.4242 15.59414827102118
FLOCK 4BE-17            
1 60492U 24149AA  26166.14115312  .00013562  00000+0  34481-3 0  9999
2 60492  97.3780 249.4938 0001901 246.4928 113.6118 15.39733221101944
NUSAT-50 (NANCY ROMAN)  
1 60493U 24149AB  26166.14076111  .00008455  00000+0  29524-3 0  9990
2 60493  97.3795 247.4105 0003268 180.2052 179.9188 15.29826327101813
FLOCK 4BE-22            
1 60494U 24149AC  26166.18946582  .00013456  00000+0  32698-3 0  9996
2 60494  97.3742 249.7312 0002265 265.1187  94.9801 15.41113453101999
FLOCK 4BE-34            
1 60495U 24149AD  26166.14167972  .00013896  00000+0  33765-3 0  9995
2 60495  97.3788 250.5041 0002062 279.5950  80.5064 15.41107670102011
TYCHE                   
1 60496U 24149AE  26166.16839082  .00003907  00000+0  15492-3 0  9995
2 60496  97.3759 244.0113 0000555 268.8596  91.2579 15.25973484101598
FLOCK 4BE-32            
1 60497U 24149AF  26166.17648185  .00014296  00000+0  33609-3 0  9992
2 60497  97.3730 250.0814 0002304 269.0222  91.0761 15.42099037102028
NUSAT-48 (HENRIETTA LE*)
1 60498U 24149AG  26166.19479945  .00000452  00000+0  18258-4 0  9994
2 60498  97.3963 247.7130 0003737 301.1659  58.9215 15.29824638101836
FLOCK 4BE-30            
1 60499U 24149AH  26166.19943589  .00106509  00000+0  15092-2 0  9996
2 60499  97.3782 251.6511 0004055 235.0028 125.0847 15.56099799101460
NUSAT-49 (KLARA DAN VO*)
1 60500U 24149AJ  26166.17297964  .00007745  00000+0  26998-3 0  9996
2 60500  97.3788 247.4743 0001137 352.1665   7.9558 15.29916929101825
FLOCK 4BE-11            
1 60501U 24149AK  26166.17214513  .00013835  00000+0  31653-3 0  9997
2 60501  97.3707 250.3055 0002477 269.0838  91.0126 15.42923239102049
YAM-7                   
1 60504U 24149AN  26166.22821237  .00006298  00000+0  20767-3 0  9992
2 60504  97.3789 246.4855 0002042 319.2562  40.8527 15.31795988101756
FLOCK 4BE-24            
1 60505U 24149AP  26166.15884089  .00015677  00000+0  35735-3 0  9991
2 60505  97.3726 250.5470 0002698 284.3501  75.7447 15.43004342102051
LUR-1                   
1 60506U 24149AQ  26166.15094998  .00005775  00000+0  20097-3 0  9997
2 60506  97.3742 244.9936 0002950 330.1811  29.9261 15.30082867101664
