OBJECT_NAME,OBJECT_ID,EPOCH,MEAN_MOTION,ECCENTRICITY,INCLINATION,RA_OF_ASC_NODE,ARG_OF_PERICENTER,MEAN_ANOMALY,EPHEMERIS_TYPE,CLASSIFICATION_TYPE,NORAD_CAT_ID,ELEMENT_SET_NO,REV_AT_EPOCH,BSTAR,MEAN_MOTION_DOT,MEAN_MOTION_DDOT
CONNECTA IOT-1,2024-149E,2026-06-15T04:35:15.359136,15.23526920,.00004128,97.3762,242.5159,321.6973,38.4235,0,U,60472,999,10149,.14569966E-3,.3409E-4,0
LOPEN,2024-149F,2026-06-15T04:20:05.105760,15.39637703,.00007087,97.3788,249.5325,183.9235,176.2005,0,U,60473,999,10195,.32542912E-3,.12753E-3,0
ROCK,2024-149G,2026-06-15T04:00:44.425440,15.39632671,.00009237,97.3781,249.5347,197.4816,162.6398,0,U,60474,999,10195,.31298703E-3,.12259E-3,0
CONNECTA IOT-3,2024-149H,2026-06-15T03:31:28.986528,15.23538492,.00013135,97.3738,242.2261,268.3351,91.7736,0,U,60475,999,10149,.15264382E-3,.3576E-4,0
QUBE,2024-149J,2026-06-15T05:35:43.510272,15.47114435,.000177,97.3784,252.6286,200.4314,159.6865,0,U,60476,999,10216,.36031631E-3,.18188E-3,0
WREN-1,2024-149L,2026-06-15T04:29:10.971456,15.41487839,.00031398,97.3769,250.2782,258.4141,101.6754,0,U,60478,999,10201,.40100067E-3,.16736E-3,0
TOMORROW-S1,2024-149M,2026-06-15T04:16:01.395552,15.32696454,.00013249,97.3752,246.6559,223.1234,136.9905,0,U,60479,999,10178,.22149306E-3,.6915E-4,0
FLOCK 4BE-18,2024-149N,2026-06-15T04:46:12.896832,15.41801834,.00027183,97.3735,249.9071,244.6714,115.4251,0,U,60480,999,10200,.34038992E-3,.14338E-3,0
FLOCK 4BE-7,2024-149P,2026-06-15T03:20:35.051712,15.40240325,.00018808,97.3766,249.1903,245.2281,114.8769,0,U,60481,999,10193,.48598219E-3,.19485E-3,0
TOMORROW-S2,2024-149T,2026-06-15T03:26:00.568032,15.32725636,.00012681,97.3824,247.1083,277.5446,82.5652,0,U,60485,999,10177,.23485379E-3,.7344E-4,0
FLOCK 4BE-36,2024-149U,2026-06-15T04:06:44.874144,15.42671784,.00022969,97.3751,250.5752,262.9193,97.1794,0,U,60486,999,10204,.31877024E-3,.13816E-3,0
FLOCK 4BE-25,2024-149V,2026-06-15T03:17:15.415872,15.38792703,.00011336,97.3807,249.2730,228.8847,131.2301,0,U,60487,999,10192,.31812064E-3,.12123E-3,0
FLOCK 4BE-31,2024-149W,2026-06-15T03:20:33.335808,15.44024342,.00012512,97.3805,251.3948,256.3639,103.7470,0,U,60488,999,10206,.43722136E-3,.1988E-3,0
FLOCK 4BE-20,2024-149X,2026-06-15T03:56:49.597152,15.38010544,.00024055,97.3702,248.1850,259.3445,100.7529,0,U,60489,999,10190,.30206198E-3,.11217E-3,0
FLOCK 4BE-23,2024-149Y,2026-06-15T03:42:02.735712,15.37626499,.00019562,97.3788,248.5500,270.8313,89.2708,0,U,60490,999,10188,.29386081E-3,.10774E-3,0
FLOCK 4BE-15,2024-149Z,2026-06-15T03:53:19.657248,15.59414827,.00028575,97.3693,251.4664,242.6724,117.4242,0,U,60491,999,10211,.92338939E-3,.73387E-3,0
FLOCK 4BE-17,2024-149AA,2026-06-15T03:23:15.629568,15.39733221,.00019013,97.3780,249.4938,246.4928,113.6118,0,U,60492,999,10194,.34481023E-3,.13562E-3,0
NUSAT-50 (NANCY ROMAN),2024-149AB,2026-06-15T03:22:41.759904,15.29826327,.00032686,97.3795,247.4105,180.2052,179.9188,0,U,60493,999,10181,.29523812E-3,.8455E-4,0
FLOCK 4BE-22,2024-149AC,2026-06-15T04:32:49.846848,15.41113453,.00022658,97.3742,249.7312,265.1187,94.9801,0,U,60494,999,10199,.32698069E-3,.13456E-3,0
FLOCK 4BE-34,2024-149AD,2026-06-15T03:24:01.127808,15.41107670,.0002062,97.3788,250.5041,279.5950,80.5064,0,U,60495,999,10201,.33765328E-3,.13896E-3,0
TYCHE,2024-149AE,2026-06-15T04:02:28.966848,15.25973484,.00005555,97.3759,244.0113,268.8596,91.2579,0,U,60496,999,10159,.15492062E-3,.3907E-4,0
FLOCK 4BE-32,2024-149AF,2026-06-15T04:14:08.031840,15.42099037,.00023045,97.3730,250.0814,269.0222,91.0761,0,U,60497,999,10202,.33609048E-3,.14296E-3,0
NUSAT-48 (HENRIETTA LEAVITT),2024-149AG,2026-06-15T04:40:30.672480,15.29824638,.00037373,97.3963,247.7130,301.1659,58.9215,0,U,60498,999,10183,.18258486E-4,.452E-5,0
FLOCK 4BE-30,2024-149AH,2026-06-15T04:47:11.260896,15.56099799,.00040554,97.3782,251.6511,235.0028,125.0847,0,U,60499,999,10146,.1509189E-2,.106509E-2,0
NUSAT-49 (KLARA DAN VON NEUMANN),2024-149AJ,2026-06-15T04:09:05.440896,15.29916929,.00011375,97.3788,247.4743,352.1665,7.9558,0,U,60500,999,10182,.26997943E-3,.7745E-4,0
FLOCK 4BE-11,2024-149AK,2026-06-15T04:07:53.339232,15.42923239,.00024774,97.3707,250.3055,269.0838,91.0126,0,U,60501,999,10204,.31652996E-3,.13835E-3,0
YAM-7,2024-149AN,2026-06-15T05:28:37.548768,15.31795988,.0002042,97.3789,246.4855,319.2562,40.8527,0,U,60504,999,10175,.20767192E-3,.6298E-4,0
FLOCK 4BE-24,2024-149AP,2026-06-15T03:48:43.852896,15.43004342,.00026986,97.3726,250.5470,284.3501,75.7447,0,U,60505,999,10205,.35735373E-3,.15677E-3,0
LUR-1,2024-149AQ,2026-06-15T03:37:22.078272,15.30082867,.00029505,97.3742,244.9936,330.1811,29.9261,0,U,60506,999,10166,.20096543E-3,.5775E-4,0
